{
  "type": "FeatureCollection",
  "features": [
    {
      "type": "Feature",
      "properties": {
        "norad_id": 33376,
        "name": "GALAXY 19 (G-19)",
        "group": "intelsat",
        "lat": 0.016319368219135478,
        "lon": 150.51738652807663,
        "alt_km": 35792.61300679035,
        "timestamp": "2025-12-06T11:28:10.696922+00:00",
        "meta_object_name": "GALAXY 19 (G-19)",
        "meta_object_id": "2008-045A",
        "meta_epoch": "2025-12-05T21:47:47.717088",
        "meta_mean_motion": 1.00270685,
        "meta_eccentricity": 0.00034355,
        "meta_inclination": 0.019,
        "meta_ra_of_asc_node": 54.9924,
        "meta_arg_of_pericenter": 210.8724,
        "meta_mean_anomaly": 39.0453,
        "meta_ephemeris_type": 0,
        "meta_classification_type": "U",
        "meta_norad_cat_id": 33376,
        "meta_element_set_no": 999,
        "meta_rev_at_epoch": 6296,
        "meta_bstar": 0,
        "meta_mean_motion_dot": -1.3e-06,
        "meta_mean_motion_ddot": 0,
        "tle_line1": "1 33376U 08045A   25339.90819117 -.00000130  00000+0  00000+0 0  9990",
        "tle_line2": "2 33376   0.0190  54.9924 0003435 210.8724  39.0453  1.00270685 62962"
      },
      "geometry": {
        "type": "Point",
        "coordinates": [
          150.51738652807663,
          0.016319368219135478
        ]
      }
    },
    {
      "type": "Feature",
      "properties": {
        "norad_id": 35493,
        "name": "FM-5",
        "group": "intelsat",
        "lat": -0.018996146282512606,
        "lon": 161.39448291023322,
        "alt_km": 35783.90971174176,
        "timestamp": "2025-12-06T11:28:10.696934+00:00",
        "meta_object_name": "FM-5",
        "meta_object_id": "2009-034A",
        "meta_epoch": "2025-12-05T21:50:47.429952",
        "meta_mean_motion": 1.00270718,
        "meta_eccentricity": 6.699e-05,
        "meta_inclination": 0.0176,
        "meta_ra_of_asc_node": 290.3088,
        "meta_arg_of_pericenter": 257.4764,
        "meta_mean_anomaly": 128.7206,
        "meta_ephemeris_type": 0,
        "meta_classification_type": "U",
        "meta_norad_cat_id": 35493,
        "meta_element_set_no": 999,
        "meta_rev_at_epoch": 4470,
        "meta_bstar": 0,
        "meta_mean_motion_dot": -1.91e-06,
        "meta_mean_motion_ddot": 0,
        "tle_line1": "1 35493U 09034A   25339.91027118 -.00000191  00000+0  00000+0 0  9991",
        "tle_line2": "2 35493   0.0176 290.3088 0000669 257.4764 128.7206  1.00270718 44703"
      },
      "geometry": {
        "type": "Point",
        "coordinates": [
          161.39448291023322,
          -0.018996146282512606
        ]
      }
    },
    {
      "type": "Feature",
      "properties": {
        "norad_id": 36097,
        "name": "INTELSAT 14 (IS-14)",
        "group": "intelsat",
        "lat": -0.02795793585578528,
        "lon": -157.4661009431799,
        "alt_km": 35779.721470527846,
        "timestamp": "2025-12-06T11:28:10.696946+00:00",
        "meta_object_name": "INTELSAT 14 (IS-14)",
        "meta_object_id": "2009-064A",
        "meta_epoch": "2025-12-05T22:02:31.305696",
        "meta_mean_motion": 1.00271287,
        "meta_eccentricity": 0.00027334,
        "meta_inclination": 0.01,
        "meta_ra_of_asc_node": 327.0011,
        "meta_arg_of_pericenter": 291.0366,
        "meta_mean_anomaly": 102.5698,
        "meta_ephemeris_type": 0,
        "meta_classification_type": "U",
        "meta_norad_cat_id": 36097,
        "meta_element_set_no": 999,
        "meta_rev_at_epoch": 5866,
        "meta_bstar": 0,
        "meta_mean_motion_dot": -2.64e-06,
        "meta_mean_motion_ddot": 0,
        "tle_line1": "1 36097U 09064A   25339.91841789 -.00000264  00000+0  00000+0 0  9994",
        "tle_line2": "2 36097   0.0100 327.0011 0002733 291.0366 102.5698  1.00271287 58668"
      },
      "geometry": {
        "type": "Point",
        "coordinates": [
          -157.4661009431799,
          -0.02795793585578528
        ]
      }
    },
    {
      "type": "Feature",
      "properties": {
        "norad_id": 36106,
        "name": "INTELSAT 15 (IS-15)",
        "group": "intelsat",
        "lat": 0.0032492518195921588,
        "lon": -27.265060067147495,
        "alt_km": 35783.70214063274,
        "timestamp": "2025-12-06T11:28:10.696958+00:00",
        "meta_object_name": "INTELSAT 15 (IS-15)",
        "meta_object_id": "2009-067A",
        "meta_epoch": "2025-12-05T22:31:38.798400",
        "meta_mean_motion": 1.00270462,
        "meta_eccentricity": 0.00025054,
        "meta_inclination": 0.0132,
        "meta_ra_of_asc_node": 323.6959,
        "meta_arg_of_pericenter": 294.2301,
        "meta_mean_anomaly": 240.1314,
        "meta_ephemeris_type": 0,
        "meta_classification_type": "U",
        "meta_norad_cat_id": 36106,
        "meta_element_set_no": 999,
        "meta_rev_at_epoch": 3929,
        "meta_bstar": 0,
        "meta_mean_motion_dot": -1.76e-06,
        "meta_mean_motion_ddot": 0,
        "tle_line1": "1 36106U 09067A   25339.93864350 -.00000176  00000+0  00000+0 0  9991",
        "tle_line2": "2 36106   0.0132 323.6959 0002505 294.2301 240.1314  1.00270462 39294"
      },
      "geometry": {
        "type": "Point",
        "coordinates": [
          -27.265060067147495,
          0.0032492518195921588
        ]
      }
    },
    {
      "type": "Feature",
      "properties": {
        "norad_id": 36131,
        "name": "DIRECTV 12",
        "group": "intelsat",
        "lat": 0.027025046411451908,
        "lon": 144.8139162708802,
        "alt_km": 35787.66044962732,
        "timestamp": "2025-12-06T11:28:10.696970+00:00",
        "meta_object_name": "DIRECTV 12",
        "meta_object_id": "2009-075A",
        "meta_epoch": "2025-12-05T21:46:02.883648",
        "meta_mean_motion": 1.00268748,
        "meta_eccentricity": 1.747e-05,
        "meta_inclination": 0.0511,
        "meta_ra_of_asc_node": 135.6854,
        "meta_arg_of_pericenter": 197.3561,
        "meta_mean_anomaly": 325.695,
        "meta_ephemeris_type": 0,
        "meta_classification_type": "U",
        "meta_norad_cat_id": 36131,
        "meta_element_set_no": 999,
        "meta_rev_at_epoch": 4461,
        "meta_bstar": 0,
        "meta_mean_motion_dot": -9.4e-07,
        "meta_mean_motion_ddot": 0,
        "tle_line1": "1 36131U 09075A   25339.90697782 -.00000094  00000+0  00000+0 0  9997",
        "tle_line2": "2 36131   0.0511 135.6854 0000174 197.3561 325.6950  1.00268748 44610"
      },
      "geometry": {
        "type": "Point",
        "coordinates": [
          144.8139162708802,
          0.027025046411451908
        ]
      }
    },
    {
      "type": "Feature",
      "properties": {
        "norad_id": 36397,
        "name": "INTELSAT 16 (IS-16)",
        "group": "intelsat",
        "lat": -0.015528339761168566,
        "lon": 171.32568996367203,
        "alt_km": 35785.59738647037,
        "timestamp": "2025-12-06T11:28:10.696982+00:00",
        "meta_object_name": "INTELSAT 16 (IS-16)",
        "meta_object_id": "2010-006A",
        "meta_epoch": "2025-12-05T21:53:39.655392",
        "meta_mean_motion": 1.00271359,
        "meta_eccentricity": 0.00023758,
        "meta_inclination": 0.0101,
        "meta_ra_of_asc_node": 316.8928,
        "meta_arg_of_pericenter": 300.703,
        "meta_mean_anomaly": 69.5834,
        "meta_ephemeris_type": 0,
        "meta_classification_type": "U",
        "meta_norad_cat_id": 36397,
        "meta_element_set_no": 999,
        "meta_rev_at_epoch": 5771,
        "meta_bstar": 0,
        "meta_mean_motion_dot": -2.35e-06,
        "meta_mean_motion_ddot": 0,
        "tle_line1": "1 36397U 10006A   25339.91226453 -.00000235  00000+0  00000+0 0  9998",
        "tle_line2": "2 36397   0.0101 316.8928 0002375 300.7030  69.5834  1.00271359 57712"
      },
      "geometry": {
        "type": "Point",
        "coordinates": [
          171.32568996367203,
          -0.015528339761168566
        ]
      }
    },
    {
      "type": "Feature",
      "properties": {
        "norad_id": 37185,
        "name": "XM-5",
        "group": "intelsat",
        "lat": -0.029866751237121004,
        "lon": 132.3398774377067,
        "alt_km": 35781.331024288884,
        "timestamp": "2025-12-06T11:28:10.696994+00:00",
        "meta_object_name": "XM-5",
        "meta_object_id": "2010-053A",
        "meta_epoch": "2025-12-05T21:42:40.706784",
        "meta_mean_motion": 1.00267095,
        "meta_eccentricity": 0.00016947,
        "meta_inclination": 0.0612,
        "meta_ra_of_asc_node": 273.0724,
        "meta_arg_of_pericenter": 250.8674,
        "meta_mean_anomaly": 121.4919,
        "meta_ephemeris_type": 0,
        "meta_classification_type": "U",
        "meta_norad_cat_id": 37185,
        "meta_element_set_no": 999,
        "meta_rev_at_epoch": 5554,
        "meta_bstar": 0,
        "meta_mean_motion_dot": -1.3e-07,
        "meta_mean_motion_ddot": 0,
        "tle_line1": "1 37185U 10053A   25339.90463781 -.00000013  00000+0  00000+0 0  9996",
        "tle_line2": "2 37185   0.0612 273.0724 0001694 250.8674 121.4919  1.00267095 55548"
      },
      "geometry": {
        "type": "Point",
        "coordinates": [
          132.3398774377067,
          -0.029866751237121004
        ]
      }
    }
  ]
}